[{"OBJECT_NAME":"MONITOR-3 (RS58S)","OBJECT_ID":"2023-091Q","EPOCH":"2026-03-09T23:24:02.583360","MEAN_MOTION":15.25747617,"ECCENTRICITY":0.0013676,"INCLINATION":97.5199,"RA_OF_ASC_NODE":131.7909,"ARG_OF_PERICENTER":91.0881,"MEAN_ANOMALY":269.1924,"EPHEMERIS_TYPE":0,"CLASSIFICATION_TYPE":"U","NORAD_CAT_ID":57180,"ELEMENT_SET_NO":999,"REV_AT_EPOCH":14915,"BSTAR":0.00054974842,"MEAN_MOTION_DOT":0.00014004,"MEAN_MOTION_DDOT":0},{"OBJECT_NAME":"STARLINK-31495","OBJECT_ID":"2024-056T","EPOCH":"2026-03-09T11:04:09.923808","MEAN_MOTION":15.27571993,"ECCENTRICITY":0.00012844,"INCLINATION":43.0007,"RA_OF_ASC_NODE":224.6995,"ARG_OF_PERICENTER":269.6644,"MEAN_ANOMALY":90.406,"EPHEMERIS_TYPE":0,"CLASSIFICATION_TYPE":"U","NORAD_CAT_ID":59313,"ELEMENT_SET_NO":999,"REV_AT_EPOCH":11120,"BSTAR":-4.4413387e-5,"MEAN_MOTION_DOT":-1.484e-5,"MEAN_MOTION_DDOT":0}]
